ONEWEB-0589             
1 54655U 22166P   25114.59549317 -.00000047  00000+0 -14527-3 0  9992
2 54655  87.9275 327.4690 0002563  82.6975 277.4450 13.21823610116249
ONEWEB-0590             
1 54656U 22166Q   25114.54333005  .00000100  00000+0  21078-3 0  9990
2 54656  87.9255 327.4682 0001945  99.0166 261.1188 13.21827095116683
ONEWEB-0591             
1 54657U 22166R   25114.10189480  .00000016  00000+0  80582-5 0  9992
2 54657  87.9273 327.5679 0001923  87.7383 272.3972 13.21824461116197
ONEWEB-0592             
1 54658U 22166S   25114.55922046  .00000051  00000+0  92002-4 0  9993
2 54658  87.9265 327.4312 0001926  88.5702 271.5653 13.21824024116135
ONEWEB-0593             
1 54659U 22166T   25114.73427508  .00000106  00000+0  22412-3 0  9995
2 54659  87.9266 327.4332 0002018  84.8526 275.2838 13.21824887116262
ONEWEB-0594             
1 54660U 22166U   25114.52611124  .00000097  00000+0  20289-3 0  9992
2 54660  87.9271 327.4854 0001738  84.4964 275.6368 13.21825469116257
ONEWEB-0595             
1 54661U 22166V   25114.57971961  .00000018  00000+0  12591-4 0  9997
2 54661  87.9272 327.4542 0001616  88.5658 271.5661 13.21824012116235
ONEWEB-0596             
1 54662U 22166W   25114.09872900  .00000044  00000+0  75459-4 0  9999
2 54662  87.9276 327.5614 0001774  88.9216 271.2122 13.21824377116176
